{
  "type": "FeatureCollection",
  "name": "districts",
  "features": [
    {
      "type": "Feature",
      "properties": {
        "ADM2_EN": "Bagerhat",
        "ADM1_EN": "Khulna"
      },
      "geometry": {
        "type": "MultiPolygon",
        "coordinates": [
          [
            [
              [
                89.84021305100003,
                21.827843220000034
              ],
              [
                89.84410529400003,
                21.82708180800006
              ],
              [
                89.84672148000004,
                21.822590284000057
              ],
              [
                89.84948755300007,
                21.82149312100006
              ],
              [
                89.85325494300008,
                21.817528250000066
              ],
              [
                89.85377107100004,
                21.813369299000044
              ],
              [
                89.85259594600006,
                21.811169122000024
              ],
              [
                89.85341808300007,
                21.808157864000066
              ],
              [
                89.84709579000008,
                21.807530705000033
              ],
              [
                89.84328067800004,
                21.808483127000045
              ],
              [
                89.84092322300006,
                21.810728005000044
              ],
              [
                89.84066300500007,
                21.814456880000023
              ],
              [
                89.83897150000007,
                21.81617637200003
              ],
              [
                89.83750021000003,
                21.826884292000045
              ],
              [
                89.84021305100003,
                21.827843220000034
              ]
            ]
          ],
          [
            [
              [
                89.54495396200008,
                21.849524065000026
              ],
              [
                89.54926253800005,
                21.84733653400008
              ],
              [
                89.55188943300004,
                21.842467259000045
              ],
              [
                89.55746649600007,
                21.835693639000056
              ],
              [
                89.57539900600005,
                21.823501914000076
              ],
              [
                89.59628449500008,
                21.80701237100004
              ],
              [
                89.60305510500007,
                21.80239143800003
              ],
              [
                89.60454937200006,
                21.79880937200005
              ],
              [
                89.60522961800007,
                21.793504234000068
              ],
              [
                89.60471085900008,
                21.786666252000032
              ],
              [
                89.60220314200006,
                21.777194101000077
              ],
              [
                89.60103120400004,
                21.77523102200007
              ],
              [
                89.59402395400008,
                21.773397422000073
              ],
              [
                89.59090672900004,
                21.771668343000044
              ],
              [
                89.58769353300005,
                21.767692423000028
              ],
              [
                89.58657722400005,
                21.764342833000057
              ],
              [
                89.58771333400006,
                21.760760008000034
              ],
              [
                89.58767454300005,
                21.756457117000025
              ],
              [
                89.58859115900003,
                21.749049210000067
              ],
              [
                89.59291061000005,
                21.741697128000055
              ],
              [
                89.60058880500009,
                21.731580505000068
              ],
              [
                89.60510219000008,
                21.727814222000063
              ],
              [
                89.60649607500005,
                21.723275580000063
              ],
              [
                89.60630265900005,
                21.719068011000047
              ],
              [
                89.59955079300005,
                21.71838240900007
              ],
              [
                89.59801984900008,
                21.71694443000007
              ],
              [
                89.59408326100004,
                21.715930841000045
              ],
              [
                89.59329483000005,
                21.71425577900004
              ],
              [
                89.58971543500007,
                21.71357753500007
              ],
              [
                89.58070977000006,
                21.713889564000056
              ],
              [
                89.57645420700004,
                21.71591128600005
              ],
              [
                89.57385023300003,
                21.714088057000026
              ],
              [
                89.57042073800005,
                21.71465291100003
              ],
              [
                89.56463104700003,
                21.717362914000034
              ],
              [
                89.55837468000004,
                21.722031446000074
              ],
              [
                89.55539705600006,
                21.725322294000023
              ],
              [
                89.55438517100004,
                21.730888932000028
              ],
              [
                89.54456491500008,
                21.745778550000068
              ],
              [
                89.54329715900008,
                21.750268979000055
              ],
              [
                89.53811643900008,
                21.76201552400005
              ],
              [
                89.53738818400006,
                21.765646847000028
              ],
              [
                89.53814625400008,
                21.768660904000058
              ],
              [
                89.53649636100005,
                21.772385636000024
              ],
              [
                89.53838635800008,
                21.773633756000038
              ],
              [
                89.54368717100004,
                21.77259677400008
              ],
              [
                89.54656013500005,
                21.770405293000067
              ],
              [
                89.54783630000009,
                21.771556193000038
              ],
              [
                89.54121426600005,
                21.777657541000053
              ],
              [
                89.53966987100006,
                21.780426331000058
              ],
              [
                89.54080404600006,
                21.78592736400003
              ],
              [
                89.54688648200005,
                21.788716948000058
              ],
              [
                89.54984354500004,
                21.792597514000022
              ],
              [
                89.54887128300004,
                21.80062668100004
              ],
              [
                89.54743422100006,
                21.801818148000052
              ],
              [
                89.54400511800009,
                21.80147387200003
              ],
              [
                89.54097531500008,
                21.804477408000025
              ],
              [
                89.53937539700007,
                21.80844114100006
              ],
              [
                89.53672840400003,
                21.811732509000024
              ],
              [
                89.53697435000004,
                21.814792836000038
              ],
              [
                89.53481800800006,
                21.816651296000032
              ],
              [
                89.53085534200005,
                21.822951052000064
              ],
              [
                89.53183758500006,
                21.82792570400005
              ],
              [
                89.53482479300004,
                21.838308709000046
              ],
              [
                89.54029421900003,
                21.849415429000032
              ],
              [
                89.54495396200008,
                21.849524065000026
              ]
            ]
          ],
          [
            [
              [
                89.86080289500006,
                21.835033252000073
              ],
              [
                89.85594221500008,
                21.840934170000025
              ],
              [
                89.85235125700007,
                21.846906949000072
              ],
              [
                89.85074607100006,
                21.854674010000053
              ],
              [
                89.85304751300004,
                21.857783478000044
              ],
              [
                89.85980899200007,
                21.85664194800006
              ],
              [
                89.86329528800007,
                21.85253348300006
              ],
              [
                89.86406994700008,
                21.84569732600005
              ],
              [
                89.86366459100003,
                21.84134645200004
              ],
              [
                89.86080289500006,
                21.835033252000073
              ]
            ]
          ],
          [
            [
              [
                89.65410571500007,
                21.857437557000026
              ],
              [
                89.64780218300007,
                21.85914531800006
              ],
              [
                89.63797982400007,
                21.86490876700003
              ],
              [
                89.63566937900003,
                21.867150766000066
              ],
              [
                89.63212178700007,
                21.87244961500005
              ],
              [
                89.63089918100007,
                21.879857267000034
              ],
              [
                89.63267515600006,
                21.886458782000034
              ],
              [
                89.63704031100008,
                21.892205454000077
              ],
              [
                89.64430046600006,
                21.897814866000033
              ],
              [
                89.64635162200005,
                21.896958738000023
              ],
              [
                89.65005777500005,
                21.88969970000005
              ],
              [
                89.65264148900008,
                21.880478249000078
              ],
              [
                89.65482692500007,
                21.87699264200006
              ],
              [
                89.65921664600006,
                21.872651305000034
              ],
              [
                89.66060646500006,
                21.869737950000058
              ],
              [
                89.65952001900007,
                21.86347270300007
              ],
              [
                89.65599767000003,
                21.85863663400005
              ],
              [
                89.65410571500007,
                21.857437557000026
              ]
            ]
          ],
          [
            [
              [
                89.57065455700007,
                21.929547911000043
              ],
              [
                89.57053505000005,
                21.93518910100005
              ],
              [
                89.57294905400005,
                21.933330888000057
              ],
              [
                89.57065455700007,
                21.929547911000043
              ]
            ]
          ],
          [
            [
              [
                89.61475867900003,
                21.94672881300005
              ],
              [
                89.62065474700006,
                21.945642854000027
              ],
              [
                89.62229873600006,
                21.94411697700008
              ],
              [
                89.62591164700007,
                21.93422899500007
              ],
              [
                89.62966588600005,
                21.92893080500005
              ],
              [
                89.63935048200005,
                21.918721213000026
              ],
              [
                89.64569587300008,
                21.911468348000028
              ],
              [
                89.64565230800008,
                21.908408343000076
              ],
              [
                89.63428466500005,
                21.89600124100008
              ],
              [
                89.63081271200008,
                21.891595042000063
              ],
              [
                89.62642585300006,
                21.884413910000035
              ],
              [
                89.62484865100004,
                21.88034671400004
              ],
              [
                89.62364126500006,
                21.871977320000042
              ],
              [
                89.62424156700007,
                21.867628224000043
              ],
              [
                89.62573719000005,
                21.863711434000038
              ],
              [
                89.63023340800004,
                21.85788886200004
              ],
              [
                89.63803815200004,
                21.84992206900006
              ],
              [
                89.64556265500005,
                21.84095030800006
              ],
              [
                89.65041727100004,
                21.83460221300004
              ],
              [
                89.65284119000006,
                21.83276679100004
              ],
              [
                89.65643751200008,
                21.827849835000052
              ],
              [
                89.65895114000006,
                21.825847082000053
              ],
              [
                89.66070218900006,
                21.821500188000073
              ],
              [
                89.68081208000007,
                21.80399424700005
              ],
              [
                89.68588456400005,
                21.802091707000045
              ],
              [
                89.68757760900007,
                21.800421508000056
              ],
              [
                89.69467474500004,
                21.797279382000056
              ],
              [
                89.69675519400005,
                21.79388896000006
              ],
              [
                89.69692053000006,
                21.78829560300005
              ],
              [
                89.69892500900005,
                21.784426730000064
              ],
              [
                89.69994128300004,
                21.775727222000057
              ],
              [
                89.69887248200007,
                21.772809014000075
              ],
              [
                89.69192430800007,
                21.766819976000022
              ],
              [
                89.68760585200005,
                21.76379989800006
              ],
              [
                89.68632040600005,
                21.766570303000037
              ],
              [
                89.68345234300006,
                21.767377690000046
              ],
              [
                89.68274546500004,
                21.76293008300007
              ],
              [
                89.67809773500005,
                21.758618279000075
              ],
              [
                89.66994257100004,
                21.75511195400003
              ],
              [
                89.65899517200006,
                21.753177487000073
              ],
              [
                89.65449002800005,
                21.75374185100003
              ],
              [
                89.65041763100004,
                21.755310999000073
              ],
              [
                89.64800176200004,
                21.75970441000004
              ],
              [
                89.64912167600005,
                21.762145050000072
              ],
              [
                89.64701968800006,
                21.763574850000055
              ],
              [
                89.64241485900004,
                21.762991253000052
              ],
              [
                89.63738943700008,
                21.75707636900006
              ],
              [
                89.63600895100006,
                21.756547345000058
              ],
              [
                89.63103930100004,
                21.75832861200007
              ],
              [
                89.62785984200008,
                21.760759750000034
              ],
              [
                89.62105107200006,
                21.761509426000032
              ],
              [
                89.61705462100008,
                21.763173632000075
              ],
              [
                89.61016771100003,
                21.764256963000037
              ],
              [
                89.60954811300007,
                21.766263475000073
              ],
              [
                89.61579269200007,
                21.775792253000077
              ],
              [
                89.61777280700005,
                21.781868471000053
              ],
              [
                89.61852897400007,
                21.786268723000035
              ],
              [
                89.61709427100004,
                21.796400676000076
              ],
              [
                89.61606230500007,
                21.799410231000024
              ],
              [
                89.61246422900007,
                21.804852023000024
              ],
              [
                89.60817637000008,
                21.809575245000076
              ],
              [
                89.60807066600006,
                21.810865826000054
              ],
              [
                89.59745415900005,
                21.817533299000047
              ],
              [
                89.58506015200004,
                21.82768581700003
              ],
              [
                89.56614987300009,
                21.841501692000065
              ],
              [
                89.55776488900005,
                21.84967862600007
              ],
              [
                89.55428771100009,
                21.85626678600005
              ],
              [
                89.55459098700004,
                21.857558425000036
              ],
              [
                89.56168768800006,
                21.859489677000056
              ],
              [
                89.56650024700008,
                21.859989426000027
              ],
              [
                89.57744956800008,
                21.862235007000038
              ],
              [
                89.58449207800004,
                21.86510615800006
              ],
              [
                89.59282902600006,
                21.870359706000045
              ],
              [
                89.59489473900004,
                21.872993026000074
              ],
              [
                89.59315100600008,
                21.878951577000066
              ],
              [
                89.59045692100005,
                21.88248731500005
              ],
              [
                89.58255156500007,
                21.888376944000072
              ],
              [
                89.59281373900006,
                21.87670931100007
              ],
              [
                89.59335618600005,
                21.87219221400005
              ],
              [
                89.58532034000007,
                21.866529220000075
              ],
              [
                89.57515282900005,
                21.862916582000025
              ],
              [
                89.56208508700007,
                21.86088404000003
              ],
              [
                89.55761478700003,
                21.85982775900004
              ],
              [
                89.55488626900006,
                21.861431680000067
              ],
              [
                89.55417839600005,
                21.866736463000052
              ],
              [
                89.55273505000008,
                21.86974445900006
              ],
              [
                89.55032322400007,
                21.87117213600004
              ],
              [
                89.54853770200003,
                21.877047635000054
              ],
              [
                89.54979036400005,
                21.88599105700007
              ],
              [
                89.55454065600009,
                21.898529835000033
              ],
              [
                89.55803258300006,
                21.90418048400005
              ],
              [
                89.56231079400004,
                21.912415055000054
              ],
              [
                89.56733274500004,
                21.92050776700006
              ],
              [
                89.57140596100004,
                21.929123834000052
              ],
              [
                89.57531752500006,
                21.931906742000024
              ],
              [
                89.57341176800008,
                21.935248540000032
              ],
              [
                89.57852847400005,
                21.937747648000027
              ],
              [
                89.58430241600007,
                21.943451569000047
              ],
              [
                89.58841881300003,
                21.94647381900006
              ],
              [
                89.60402093300007,
                21.94727698400004
              ],
              [
                89.61475867900003,
                21.94672881300005
              ]
            ]
          ],
          [
            [
              [
                89.54550341900006,
                21.881078311000067
              ],
              [
                89.54514420900006,
                21.881316454000057
              ],
              [
                89.54543134900007,
                21.895803037000064
              ],
              [
                89.54515782200008,
                21.901252374000023
              ],
              [
                89.54736287900005,
                21.908668757000044
              ],
              [
                89.54693659800006,
                21.91383082300007
              ],
              [
                89.54766398400005,
                21.918804924000028
              ],
              [
                89.54707338000009,
                21.927312975000063
              ],
              [
                89.54518227300008,
                21.933857497000076
              ],
              [
                89.54558576900007,
                21.93591424600004
              ],
              [
                89.54243785900007,
                21.950821473000076
              ],
              [
                89.54162274100008,
                21.957368922000057
              ],
              [
                89.54443127700006,
                21.960532027000056
              ],
              [
                89.54731410400007,
                21.956524169000033
              ],
              [
                89.55633970900004,
                21.946413493000023
              ],
              [
                89.56153710300003,
                21.93930429200003
              ],
              [
                89.56885072200004,
                21.93559463500003
              ],
              [
                89.56941935200007,
                21.933875047000072
              ],
              [
                89.56719011700005,
                21.925550361000035
              ],
              [
                89.56155595700005,
                21.916452053000057
              ],
              [
                89.55296953900006,
                21.90146519500007
              ],
              [
                89.55085756500006,
                21.897013315000038
              ],
              [
                89.54550341900006,
                21.881078311000067
              ]
            ]
          ],
          [
            [
              [
                89.71447514100004,
                21.97667651100005
              ],
              [
                89.72067544700008,
                21.977547723000043
              ],
              [
                89.72232349400008,
                21.973582356000065
              ],
              [
                89.72300892400006,
                21.968897819000062
              ],
              [
                89.71447514100004,
                21.97667651100005
              ]
            ]
          ]
        ]
      }
    }
  ]
}